CCSDS_OEM_VERS = 1.0
CREATION_DATE  = 2017-05-11T11:55:17
ORIGINATOR     = GMAT USER

META_START
OBJECT_NAME          = MOPSSat_alt_35785_km_RAAN_270_058
OBJECT_ID            = SatId
CENTER_NAME          = Earth
REF_FRAME            = EME2000
TIME_SYSTEM          = UTC
START_TIME           = 2017-01-01T00:00:00.000
USEABLE_START_TIME   = 2017-01-01T00:00:00.000
USEABLE_STOP_TIME    = 2017-01-02T00:00:00.000
STOP_TIME            = 2017-01-02T00:00:00.000
INTERPOLATION        = Lagrange
INTERPOLATION_DEGREE = 7 
META_STOP


                                                                                   

2017-01-01T22:27:30.000  -1.591524232528674e+04  -3.904065327966337e+04   1.766185960205145e+00   2.847416579457476e+00  -1.160733323242124e+00  -3.765564916851308e-05
2017-01-01T22:27:40.000  -1.588676392838214e+04  -3.905225022868227e+04   1.765808839971474e+00   2.848262437787878e+00  -1.158656332581988e+00  -3.776839691393401e-05
2017-01-01T22:27:50.000  -1.585827708049738e+04  -3.906382640470067e+04   1.765430592236035e+00   2.849106781106102e+00  -1.156578725587691e+00  -3.788114958904776e-05
2017-01-01T22:28:00.000  -1.582978179700937e+04  -3.907538180146985e+04   1.765051216952852e+00   2.849949608956276e+00  -1.154500503380781e+00  -3.799390712780508e-05
2017-01-01T22:28:10.000  -1.580127809336918e+04  -3.908691641272393e+04   1.764670714077531e+00   2.850790920881284e+00  -1.152421667088214e+00  -3.810666946386961e-05
2017-01-01T22:28:20.000  -1.577276598444653e+04  -3.909843023244561e+04   1.764289083558529e+00   2.851630716442131e+00  -1.150342217794549e+00  -3.821943653319162e-05
2017-01-01T22:28:30.000  -1.574424548518355e+04  -3.910992325460087e+04   1.763906325345848e+00   2.852468995198608e+00  -1.148262156589622e+00  -3.833220827144094e-05
2017-01-01T22:28:40.000  -1.571571661044681e+04  -3.912139547319959e+04   1.763522439389094e+00   2.853305756713710e+00  -1.146181484557764e+00  -3.844498461458587e-05
2017-01-01T22:28:50.000  -1.568717937539559e+04  -3.913284688214404e+04   1.763137425642288e+00   2.854141000542573e+00  -1.144100202804651e+00  -3.855776549745295e-05
2017-01-01T22:29:00.000  -1.565863379520883e+04  -3.914427747534208e+04   1.762751284060338e+00   2.854974726240758e+00  -1.142018312437392e+00  -3.867055085479121e-05
2017-01-01T22:29:10.000  -1.563007988508459e+04  -3.915568724670615e+04   1.762364014598972e+00   2.855806933364143e+00  -1.139935814564494e+00  -3.878334062127897e-05
2017-01-01T22:29:20.000  -1.560151766051571e+04  -3.916707619004623e+04   1.761975617218616e+00   2.856637621461140e+00  -1.137852710315962e+00  -3.889613473042150e-05
2017-01-01T22:29:30.000  -1.557294713691897e+04  -3.917844429921499e+04   1.761586091879233e+00   2.857466790083274e+00  -1.135769000816252e+00  -3.900893311602910e-05
2017-01-01T22:29:40.000  -1.554436832978104e+04  -3.918979156805028e+04   1.761195438542341e+00   2.858294438780993e+00  -1.133684687194918e+00  -3.912173571163631e-05
2017-01-01T22:29:50.000  -1.551578125401356e+04  -3.920111799063137e+04   1.760803657162199e+00   2.859120567122345e+00  -1.131599770539579e+00  -3.923454245306033e-05
2017-01-01T22:30:00.000  -1.548718592459795e+04  -3.921242356102250e+04   1.760410747694606e+00   2.859945174674286e+00  -1.129514251942942e+00  -3.934735327584335e-05
2017-01-01T22:30:10.000  -1.545858235643980e+04  -3.922370827333123e+04   1.760016710094937e+00   2.860768261006938e+00  -1.127428132492180e+00  -3.946016811583183e-05
2017-01-01T22:30:20.000  -1.542997056473811e+04  -3.923497212155949e+04   1.759621544323084e+00   2.861589825682703e+00  -1.125341413295871e+00  -3.957298690770818e-05
2017-01-01T22:30:30.000  -1.540135056471149e+04  -3.924621509971492e+04   1.759225250339833e+00   2.862409868264416e+00  -1.123254095464020e+00  -3.968580958608220e-05
2017-01-01T22:30:40.000  -1.537272237159762e+04  -3.925743720180985e+04   1.758827828106800e+00   2.863228388315243e+00  -1.121166180108025e+00  -3.979863608548942e-05
2017-01-01T22:30:50.000  -1.534408600092968e+04  -3.926863842175607e+04   1.758429277590400e+00   2.864045385391024e+00  -1.119077668360832e+00  -3.991146633930894e-05
2017-01-01T22:31:00.000  -1.531544146816446e+04  -3.927981875350761e+04   1.758029598756561e+00   2.864860859050673e+00  -1.116988561349821e+00  -4.002430028122247e-05
2017-01-01T22:31:10.000  -1.528678878883156e+04  -3.929097819100305e+04   1.757628791572823e+00   2.865674808851983e+00  -1.114898860207677e+00  -4.013713784462746e-05
2017-01-01T22:31:20.000  -1.525812797787585e+04  -3.930211672842166e+04   1.757226855999157e+00   2.866487234370297e+00  -1.112808566024447e+00  -4.024997896522934e-05
2017-01-01T22:31:30.000  -1.522945905031660e+04  -3.931323435992650e+04   1.756823791997154e+00   2.867298135179779e+00  -1.110717679895596e+00  -4.036282357844153e-05
2017-01-01T22:31:40.000  -1.520078202107734e+04  -3.932433107973085e+04   1.756419599527677e+00   2.868107510858255e+00  -1.108626202909613e+00  -4.047567162005840e-05
2017-01-01T22:31:50.000  -1.517209690544286e+04  -3.933540688191875e+04   1.756014278557174e+00   2.868915360974126e+00  -1.106534136181331e+00  -4.058852302444235e-05
2017-01-01T22:32:00.000  -1.514340371868228e+04  -3.934646176059356e+04   1.755607829052489e+00   2.869721685097199e+00  -1.104441480824441e+00  -4.070137772602289e-05
2017-01-01T22:32:10.000  -1.511470247613306e+04  -3.935749570984462e+04   1.755200250982009e+00   2.870526482796260e+00  -1.102348237957621e+00  -4.081423565895983e-05
2017-01-01T22:32:20.000  -1.508599319317874e+04  -3.936850872375775e+04   1.754791544315425e+00   2.871329753639841e+00  -1.100254408702906e+00  -4.092709675725122e-05
2017-01-01T22:32:30.000  -1.505727588521981e+04  -3.937950079642491e+04   1.754381709023265e+00   2.872131497196915e+00  -1.098159994183571e+00  -4.103996095482748e-05
2017-01-01T22:32:40.000  -1.502855056766342e+04  -3.939047192194837e+04   1.753970745076746e+00   2.872931713037211e+00  -1.096064995523376e+00  -4.115282818559897e-05
2017-01-01T22:32:50.000  -1.499981725582094e+04  -3.940142209448059e+04   1.753558652446345e+00   2.873730400734120e+00  -1.093969413839093e+00  -4.126569838383910e-05
2017-01-01T22:33:00.000  -1.497107596497605e+04  -3.941235130819723e+04   1.753145431102734e+00   2.874527559862725e+00  -1.091873250245478e+00  -4.137857148393594e-05
2017-01-01T22:33:10.000  -1.494232671038483e+04  -3.942325955729739e+04   1.752731081016790e+00   2.875323189999813e+00  -1.089776505855275e+00  -4.149144742038469e-05
2017-01-01T22:33:20.000  -1.491356950720694e+04  -3.943414683602870e+04   1.752315602158560e+00   2.876117290725717e+00  -1.087679181774191e+00  -4.160432612807750e-05
2017-01-01T22:33:30.000  -1.488480437060857e+04  -3.944501313864898e+04   1.751898994498779e+00   2.876909861621514e+00  -1.085581279108415e+00  -4.171720754187935e-05
2017-01-01T22:33:40.000  -1.485603131577295e+04  -3.945585845942260e+04   1.751481258009030e+00   2.877700902268749e+00  -1.083482798965376e+00  -4.183009159659459e-05
2017-01-01T22:33:50.000  -1.482725035792846e+04  -3.946668279260807e+04   1.751062392662087e+00   2.878490412248551e+00  -1.081383742455797e+00  -4.194297822683460e-05
2017-01-01T22:34:00.000  -1.479846151237223e+04  -3.947748613245131e+04   1.750642398432334e+00   2.879278391141123e+00  -1.079284110695416e+00  -4.205586736694745e-05
2017-01-01T22:34:10.000  -1.476966479438521e+04  -3.948826847321655e+04   1.750221275294498e+00   2.880064838528006e+00  -1.077183904798789e+00  -4.216875895134285e-05
2017-01-01T22:34:20.000  -1.474086021961239e+04  -3.949902980904643e+04   1.749799023229310e+00   2.880849753981875e+00  -1.075083125907026e+00  -4.228165291302440e-05
2017-01-01T22:34:30.000  -1.471204780360225e+04  -3.950977013413206e+04   1.749375642216666e+00   2.881633137078937e+00  -1.072981775154194e+00  -4.239454918537229e-05
2017-01-01T22:34:40.000  -1.468322756197785e+04  -3.952048944264964e+04   1.748951132238163e+00   2.882414987394309e+00  -1.070879853679805e+00  -4.250744770148048e-05
2017-01-01T22:34:50.000  -1.465439950977410e+04  -3.953118772900716e+04   1.748525493267340e+00   2.883195304520021e+00  -1.068777362580469e+00  -4.262034839673318e-05
2017-01-01T22:35:00.000  -1.462556366209870e+04  -3.954186498759803e+04   1.748098725279402e+00   2.883974088047035e+00  -1.066674302958114e+00  -4.273325120623497e-05
2017-01-01T22:35:10.000  -1.459672003398264e+04  -3.955252121285739e+04   1.747670828249033e+00   2.884751337569357e+00  -1.064570675909066e+00  -4.284615606539050e-05
2017-01-01T22:35:20.000  -1.456786864075257e+04  -3.956315639912113e+04   1.747241802155790e+00   2.885527052673754e+00  -1.062466482551216e+00  -4.295906290846216e-05
2017-01-01T22:35:30.000  -1.453900949775456e+04  -3.957377054073134e+04   1.746811646980136e+00   2.886301232947446e+00  -1.060361724003873e+00  -4.307197166963594e-05
2017-01-01T22:35:40.000  -1.451014262035371e+04  -3.958436363203512e+04   1.746380362703392e+00   2.887073877978018e+00  -1.058256401387736e+00  -4.318488228302809e-05
2017-01-01T22:35:50.000  -1.448126802421270e+04  -3.959493566728563e+04   1.745947949312026e+00   2.887844987346202e+00  -1.056150515845204e+00  -4.329779468158183e-05
2017-01-01T22:36:00.000  -1.445238572491697e+04  -3.960548664077649e+04   1.745514406791922e+00   2.888614560635683e+00  -1.054044068513042e+00  -4.341070879854692e-05
2017-01-01T22:36:10.000  -1.442349573812218e+04  -3.961601654678855e+04   1.745079735130629e+00   2.889382597429211e+00  -1.051937060533142e+00  -4.352362456689812e-05
2017-01-01T22:36:20.000  -1.439459807890242e+04  -3.962652537982754e+04   1.744643934307548e+00   2.890149097325944e+00  -1.049829493004975e+00  -4.363654192189627e-05
2017-01-01T22:36:30.000  -1.436569276240191e+04  -3.963701313438624e+04   1.744207004303728e+00   2.890914059924090e+00  -1.047721367033131e+00  -4.374946079852814e-05
